[
    {
        "Altitude(m)": 610399.5602620424,
        "Argument of Periapsis(deg)": 0.0,
        "Eccentricity": 0.0,
        "Inclination(deg)": 60.0,
        "Latitude(deg)": 52.11142163568617,
        "Longitude(deg)": 152.58440387204521,
        "Mean Anomaly(deg)": 65.45450000000001,
        "RAAN(deg)": 205.0,
        "Satellite Name": "Test1 906",
        "Satellite Number": 906,
        "Semi-Major Axis(m)": 6980739.136638005,
        "Time(s)": 0
    },
    {
        "Altitude(m)": 610481.7108653367,
        "Argument of Periapsis(deg)": 0.00010418945913296404,
        "Eccentricity": 0.0,
        "Inclination(deg)": 60.0,
        "Latitude(deg)": 52.47102282862247,
        "Longitude(deg)": 153.36654289620637,
        "Mean Anomaly(deg)": 66.07460614546181,
        "RAAN(deg)": 204.99957995086024,
        "Satellite Name": "Test1 906",
        "Satellite Number": 906,
        "Semi-Major Axis(m)": 6980739.136638005,
        "Time(s)": 10
    }
]